{
  "norad_id": 65525,
  "name": "STARLINK-35057",
  "history": [
    {
      "epoch": "2026-03-28T17:56:44.628864",
      "apogee_km": 549.6766846633691,
      "perigee_km": 549.3341820214637,
      "latitude_deg": -84.36374317538541,
      "longitude_deg": 84.2829209601041,
      "semi_major_axis_km": 6927.642433342416,
      "eccentricity": 2.472e-05,
      "inclination_deg": 97.6033,
      "raan_deg": 158.5107,
      "arg_perigee_deg": 184.8539,
      "mean_anomaly_deg": 175.2685,
      "mean_motion_rev_day": 15.05651865
    },
    {
      "epoch": "2026-03-29T05:06:37.976256",
      "apogee_km": 549.6676526899537,
      "perigee_km": 549.1993489240995,
      "latitude_deg": -43.20484228381001,
      "longitude_deg": 128.9421958399471,
      "semi_major_axis_km": 6927.570500807026,
      "eccentricity": 3.38e-05,
      "inclination_deg": 97.6033,
      "raan_deg": 158.9689,
      "arg_perigee_deg": 190.5028,
      "mean_anomaly_deg": 169.6192,
      "mean_motion_rev_day": 15.05675316
    }
  ]
}